NORAD_CAT_ID,OBJECT_NAME,OBJECT_TYPE,EPOCH,MEAN_MOTION,ECCENTRICITY,INCLINATION,RA_OF_ASC_NODE,ARG_OF_PERICENTER,MEAN_ANOMALY,BSTAR,MEAN_MOTION_DOT,MEAN_MOTION_DDOT,TLE_LINE0,TLE_LINE1,TLE_LINE2,SEMIMAJOR_AXIS,PERIOD,APOGEE,PERIGEE,DECAYED
56789.0,STARLINK-6325,PAYLOAD,2024-02-23 22:00:01,15.06226521,0.0003318,70.0012,22.3833,263.1079,118.6161,-0.067535,-0.009178,0.0,0 STARLINK-6325,1 56789U 23078Y   24054.91668981 -.00917800  00000-0 -67535-1 0  9992,2 56789  70.0012  22.3833 0003318 263.1079 118.6161 15.06226521 42360,6925.88,95.603,550.043,545.447,0.0
56789.0,STARLINK-6325,PAYLOAD,2024-02-24 14:00:01,15.04925127,0.000326,70.0011,20.6833,266.996,127.049,-0.072668,-0.0095074,0.0,0 STARLINK-6325,1 56789U 23078Y   24055.58335648 -.00950740  00000-0 -72668-1 0  9990,2 56789  70.0011  20.6833 0003260 266.9960 127.0490 15.04925127  5977,6929.873,95.686,553.997,549.478,0.0
56789.0,STARLINK-6325,PAYLOAD,2024-02-24 22:00:00,15.04272309,0.0003301,70.0016,19.8349,263.559,135.3973,-0.071558,-0.00922221,0.0,0 STARLINK-6325,1 56789U 23078Y   24055.91667824 -.00922221  00000-0 -71558-1 0  9991,2 56789  70.0016  19.8349 0003301 263.5590 135.3973 15.04272309 42518,6931.877,95.727,556.031,551.454,0.0
56789.0,STARLINK-6325,PAYLOAD,2024-02-25 14:00:01,15.02964503,0.0003178,70.0016,18.1401,266.9356,139.65,-0.076076,-0.00955784,0.0,0 STARLINK-6325,1 56789U 23078Y   24056.58334491 -.00955784  00000-0 -76076-1 0  9996,2 56789  70.0016  18.1401 0003178 266.9356 139.6500 15.02964503  5938,6935.898,95.811,559.967,555.559,0.0
56789.0,STARLINK-6325,PAYLOAD,2024-02-25 22:00:00,15.02317648,0.000325,70.002,17.2943,263.9178,145.2931,-0.07578,-0.00926633,0.0,0 STARLINK-6325,1 56789U 23078Y   24056.91667824 -.00926633  00000-0 -75780-1 0  9994,2 56789  70.0020  17.2943 0003250 263.9178 145.2931 15.02317648 42668,6937.889,95.852,562.009,557.499,0.0
56789.0,STARLINK-6325,PAYLOAD,2024-02-26 14:00:01,15.01004459,0.0003122,70.0018,15.6048,266.9509,145.1967,-0.079693,-0.00950903,0.0,0 STARLINK-6325,1 56789U 23078Y   24057.58334491 -.00950903  00000-0 -79693-1 0  9993,2 56789  70.0018  15.6048 0003122 266.9509 145.1967 15.01004459  5818,6941.935,95.936,565.967,561.632,0.0
56789.0,STARLINK-6325,PAYLOAD,2024-02-26 22:00:01,15.00362916,0.0003201,70.0022,14.7615,264.3558,148.1303,-0.080149,-0.00941032,0.0,0 STARLINK-6325,1 56789U 23078Y   24057.91668981 -.00941032  00000-0 -80149-1 0  9995,2 56789  70.0022  14.7615 0003201 264.3558 148.1303 15.00362916 42819,6943.913,95.977,568.001,563.556,0.0
56789.0,STARLINK-6325,PAYLOAD,2024-02-27 06:00:00,14.99502007,0.0003085,70.0021,13.9188,269.0151,142.9595,-0.024132,-0.00285195,0.0,0 STARLINK-6325,1 56789U 23078Y   24058.25001157 -.00285195  00000-0 -24132-1 0  9990,2 56789  70.0021  13.9188 0003085 269.0151 142.9595 14.99502007 42869,6946.571,96.032,570.579,566.293,0.0
56789.0,STARLINK-6325,PAYLOAD,2024-02-27 14:00:01,14.99303918,0.0003023,70.0019,13.077,266.1782,144.5586,-0.0020154,-0.0002467,0.0,0 STARLINK-6325,1 56789U 23078Y   24058.58334491 -.00024670  00000-0 -20154-2 0  9996,2 56789  70.0019  13.0770 0003023 266.1782 144.5586 14.99303918 42918,6947.183,96.045,571.148,566.948,0.0
56789.0,STARLINK-6325,PAYLOAD,2024-02-27 22:00:00,14.99298982,0.0003071,70.0022,12.2353,264.6835,144.6716,-0.00046599,-5.791e-05,0.0,0 STARLINK-6325,1 56789U 23078Y   24058.91667824 -.00005791  00000-0 -46599-3 0  9997,2 56789  70.0022  12.2353 0003071 264.6835 144.6716 14.99298982  5969,6947.198,96.045,571.196,566.93,0.0
56789.0,STARLINK-6325,PAYLOAD,2024-02-28 14:00:01,14.99296884,0.0002989,70.0019,10.5521,267.5458,139.161,-0.00018827,-2.396e-05,0.0,0 STARLINK-6325,1 56789U 23078Y   24059.58335648 -.00002396  00000-0 -18827-3 0  9998,2 56789  70.0019  10.5521 0002989 267.5458 139.1610 14.99296884 43067,6947.204,96.045,571.146,566.993,0.0
56789.0,STARLINK-6325,PAYLOAD,2024-02-28 22:00:00,14.99321634,0.0003045,70.0022,9.7105,264.9034,140.3699,-0.00065769,-8.136e-05,0.0,0 STARLINK-6325,1 56789U 23078Y   24059.91667824 -.00008136  00000-0 -65769-3 0  9994,2 56789  70.0022   9.7105 0003045 264.9034 140.3699 14.99321634  5593,6947.128,96.043,571.108,566.878,0.0
56789.0,STARLINK-6325,PAYLOAD,2024-02-29 14:00:01,14.99289596,0.0002982,70.0018,8.027,268.5237,134.075,0.00038609,4.632e-05,0.0,0 STARLINK-6325,1 56789U 23078Y   24060.58334491  .00004632  00000-0  38609-3 0  9998,2 56789  70.0018   8.0270 0002982 268.5237 134.0750 14.99289596  5696,6947.227,96.045,571.164,567.02,0.0
56789.0,STARLINK-6325,PAYLOAD,2024-02-29 22:00:00,14.99320957,0.0003032,70.0021,7.1853,266.2792,134.9441,-0.00085495,-0.00010545,0.0,0 STARLINK-6325,1 56789U 23078Y   24060.91667824 -.00010545  00000-0 -85495-3 0  9991,2 56789  70.0021   7.1853 0003032 266.2792 134.9441 14.99320957 43263,6947.13,96.043,571.101,566.889,0.0
56789.0,STARLINK-6325,PAYLOAD,2024-03-01 14:00:01,14.99288921,0.0003011,70.0017,5.5018,269.4871,129.0607,0.0012024,0.00014645,0.0,0 STARLINK-6325,1 56789U 23078Y   24061.58334491  .00014645  00000-0  12024-2 0  9996,2 56789  70.0017   5.5018 0003011 269.4871 129.0607 14.99288921  5859,6947.229,96.046,571.186,567.002,0.0
56789.0,STARLINK-6325,PAYLOAD,2024-03-01 22:00:00,14.99331961,0.0003098,70.002,4.6601,267.4868,129.6915,-0.001484,-0.0001822,0.0,0 STARLINK-6325,1 56789U 23078Y   24061.91667824 -.00018220  00000-0 -14840-2 0  9995,2 56789  70.0020   4.6601 0003098 267.4868 129.6915 14.99331961  5907,6947.096,96.043,571.113,566.809,0.0
56789.0,STARLINK-6325,PAYLOAD,2024-03-02 02:38:19,14.99293008,0.0002842,69.9998,4.1706,265.9143,94.1691,0.00023068,2.729e-05,0.0,0 STARLINK-6325,1 56789U 23078Y   24062.10995010  .00002729  00000-0  23068-3 0  9996,2 56789  69.9998   4.1706 0002842 265.9143  94.1691 14.99293008 43441,6947.216,96.045,571.056,567.107,0.0
56789.0,STARLINK-6325,PAYLOAD,2024-03-02 05:50:27,14.99309564,0.0002876,69.9999,3.8337,267.5843,92.4987,5.2956e-05,5.54e-06,0.0,0 STARLINK-6325,1 56789U 23078Y   24062.24337777  .00000554  00000-0  52956-4 0  9994,2 56789  69.9999   3.8337 0002876 267.5843  92.4987 14.99309564 43466,6947.165,96.044,571.028,567.032,0.0
56789.0,STARLINK-6325,PAYLOAD,2024-03-02 20:15:07,14.99295797,0.0002905,70.0004,2.3181,271.1865,88.8962,3.3477e-06,-5.3e-07,0.0,0 STARLINK-6325,1 56789U 23078Y   24062.84383749 -.00000053  00000-0  33477-5 0  9993,2 56789  70.0004   2.3181 0002905 271.1865  88.8962 14.99295797 43559,6947.208,96.045,571.091,567.055,0.0
56789.0,STARLINK-6325,PAYLOAD,2024-03-02 21:51:11,14.99295939,0.000286,70.0004,2.1497,269.225,90.8582,-1.3509e-05,-2.59e-06,0.0,0 STARLINK-6325,1 56789U 23078Y   24062.91055481 -.00000259  00000-0 -13509-4 0  9992,2 56789  70.0004   2.1497 0002860 269.2250  90.8582 14.99295939 43978,6947.207,96.045,571.059,567.086,0.0
56789.0,STARLINK-6325,PAYLOAD,2024-03-03 05:51:33,14.99288624,0.0002732,70.0005,1.3078,268.1097,91.975,0.00015756,1.834e-05,0.0,0 STARLINK-6325,1 56789U 23078Y   24063.24413972  .00001834  00000-0  15756-3 0  9995,2 56789  70.0005   1.3078 0002732 268.1097  91.9750 14.99288624 44029,6947.23,96.046,570.993,567.197,0.0
56789.0,STARLINK-6325,PAYLOAD,2024-03-03 20:16:12,14.99304581,0.0002746,70.0009,359.7921,273.613,86.4715,-2.2667e-05,-3.71e-06,0.0,0 STARLINK-6325,1 56789U 23078Y   24063.84458518 -.00000371  00000-0 -22667-4 0  9993,2 56789  70.0009 359.7921 0002746 273.6130  86.4715 14.99304581 43709,6947.181,96.045,570.953,567.138,0.0
56789.0,STARLINK-6325,PAYLOAD,2024-03-03 21:52:16,14.99283103,0.000279,70.0011,359.6248,263.9842,96.1,0.0003577,4.284e-05,0.0,0 STARLINK-6325,1 56789U 23078Y   24063.91130460  .00004284  00000-0  35770-3 0  9997,2 56789  70.0011 359.6248 0002790 263.9842  96.1000 14.99283103 44122,6947.247,96.046,571.05,567.174,0.0
56789.0,STARLINK-6325,PAYLOAD,2024-03-04 05:52:37,14.99311988,0.0002557,70.0013,358.7829,257.3684,102.719,4.9559e-05,5.13e-06,0.0,0 STARLINK-6325,1 56789U 23078Y   24064.24487667  .00000513  00000-0  49559-4 0  9990,2 56789  70.0013 358.7829 0002557 257.3684 102.7190 14.99311988 43767,6947.158,96.044,570.799,567.246,0.0
56789.0,STARLINK-6325,PAYLOAD,2024-03-04 12:16:55,14.99302525,0.0001826,70.0033,358.1063,292.4456,67.651,-3.398e-05,-5.09e-06,0.0,0 STARLINK-6325,1 56789U 23078Y   24064.51175506 -.00000509  00000-0 -33980-4 0  9994,2 56789  70.0033 358.1063 0001826 292.4456  67.6510 14.99302525 44211,6947.187,96.045,570.321,567.784,0.0
56789.0,STARLINK-6325,PAYLOAD,2024-03-04 20:17:17,14.99294427,0.0002089,70.0035,357.2654,249.016,111.0777,6.874e-05,7.47e-06,0.0,0 STARLINK-6325,1 56789U 23078Y   24064.84533715  .00000747  00000-0  68740-4 0  9994,2 56789  70.0035 357.2654 0002089 249.0160 111.0777 14.99294427 43850,6947.212,96.045,570.528,567.626,0.0
56789.0,STARLINK-6325,PAYLOAD,2024-03-04 21:53:21,14.99295854,0.0002554,70.0014,357.0985,254.2125,105.8753,1.0321e-05,3.3e-07,0.0,0 STARLINK-6325,1 56789U 23078Y   24064.91205479  .00000033  00000-0  10321-4 0  9995,2 56789  70.0014 357.0985 0002554 254.2125 105.8753 14.99295854 44275,6947.208,96.045,570.847,567.298,0.0
56789.0,STARLINK-6325,PAYLOAD,2024-03-05 05:53:43,14.99294882,0.0002768,70.0013,356.2564,255.4887,104.5965,-2.4224e-05,-3.9e-06,0.0,0 STARLINK-6325,1 56789U 23078Y   24065.24564110 -.00000390  00000-0 -24224-4 0  9997,2 56789  70.0013 356.2564 0002768 255.4887 104.5965 14.99294882 44320,6947.211,96.045,570.999,567.153,0.0
56789.0,STARLINK-6325,PAYLOAD,2024-03-05 20:18:22,14.99301454,0.0002856,70.001,354.7383,264.3006,95.7828,-2.1613e-05,-3.58e-06,0.0,0 STARLINK-6325,1 56789U 23078Y   24065.84608912 -.00000358  00000-0 -21613-4 0  9995,2 56789  70.0010 354.7383 0002856 264.3006  95.7828 14.99301454 44007,6947.19,96.045,571.039,567.071,0.0
56789.0,STARLINK-6325,PAYLOAD,2024-03-06 04:18:43,14.99303714,0.0002856,70.0007,353.8956,265.3923,94.6911,2.8294e-06,-5.9e-07,0.0,0 STARLINK-6325,1 56789U 23078Y   24066.17967071 -.00000059  00000-0  28294-5 0  9996,2 56789  70.0007 353.8956 0002856 265.3923  94.6911 14.99303714 44460,6947.183,96.045,571.033,567.064,0.0
